CCSDS_OMM_VERS = 2.0
CREATION_DATE  = 
ORIGINATOR     = 

OBJECT_NAME    = STARLINK-37079
OBJECT_ID      = 2026-050V
CENTER_NAME    = EARTH
REF_FRAME      = TEME
TIME_SYSTEM    = UTC
MEAN_ELEMENT_THEORY = SGP/SGP4

EPOCH          = 2026-03-25T19:05:43.102464
MEAN_MOTION    = 15.80983657
ECCENTRICITY   = .00008474
INCLINATION    = 53.1600
RA_OF_ASC_NODE = 200.9567
ARG_OF_PERICENTER = 72.1834
MEAN_ANOMALY   = 287.9281

EPHEMERIS_TYPE = 0
CLASSIFICATION_TYPE = U
NORAD_CAT_ID   = 68186
ELEMENT_SET_NO = 999
REV_AT_EPOCH   = 302
BSTAR          = .12709987E-2
MEAN_MOTION_DOT = .259149E-2
MEAN_MOTION_DDOT = 0

CCSDS_OMM_VERS = 2.0
CREATION_DATE  = 
ORIGINATOR     = 

OBJECT_NAME    = STARLINK-37006
OBJECT_ID      = 2026-050W
CENTER_NAME    = EARTH
REF_FRAME      = TEME
TIME_SYSTEM    = UTC
MEAN_ELEMENT_THEORY = SGP/SGP4

EPOCH          = 2026-03-26T07:12:55.688256
MEAN_MOTION    = 15.80949577
ECCENTRICITY   = .00007171
INCLINATION    = 53.1596
RA_OF_ASC_NODE = 198.4176
ARG_OF_PERICENTER = 76.5983
MEAN_ANOMALY   = 283.5120

EPHEMERIS_TYPE = 0
CLASSIFICATION_TYPE = U
NORAD_CAT_ID   = 68187
ELEMENT_SET_NO = 999
REV_AT_EPOCH   = 310
BSTAR          = .14534203E-2
MEAN_MOTION_DOT = .29731E-2
MEAN_MOTION_DDOT = 0

CCSDS_OMM_VERS = 2.0
CREATION_DATE  = 
ORIGINATOR     = 

OBJECT_NAME    = STARLINK-36340
OBJECT_ID      = 2026-050X
CENTER_NAME    = EARTH
REF_FRAME      = TEME
TIME_SYSTEM    = UTC
MEAN_ELEMENT_THEORY = SGP/SGP4

EPOCH          = 2026-03-26T07:11:50.917632
MEAN_MOTION    = 15.80933043
ECCENTRICITY   = .00008318
INCLINATION    = 53.1588
RA_OF_ASC_NODE = 198.4117
ARG_OF_PERICENTER = 119.1146
MEAN_ANOMALY   = 240.9960

EPHEMERIS_TYPE = 0
CLASSIFICATION_TYPE = U
NORAD_CAT_ID   = 68188
ELEMENT_SET_NO = 999
REV_AT_EPOCH   = 300
BSTAR          = .21828571E-2
MEAN_MOTION_DOT = .454893E-2
MEAN_MOTION_DDOT = 0

CCSDS_OMM_VERS = 2.0
CREATION_DATE  = 
ORIGINATOR     = 

OBJECT_NAME    = STARLINK-36305
OBJECT_ID      = 2026-050Y
CENTER_NAME    = EARTH
REF_FRAME      = TEME
TIME_SYSTEM    = UTC
MEAN_ELEMENT_THEORY = SGP/SGP4

EPOCH          = 2026-03-26T07:10:46.321536
MEAN_MOTION    = 15.80933049
ECCENTRICITY   = .00012433
INCLINATION    = 53.1591
RA_OF_ASC_NODE = 198.4070
ARG_OF_PERICENTER = 149.7626
MEAN_ANOMALY   = 210.3469

EPHEMERIS_TYPE = 0
CLASSIFICATION_TYPE = U
NORAD_CAT_ID   = 68189
ELEMENT_SET_NO = 999
REV_AT_EPOCH   = 300
BSTAR          = .22281759E-2
MEAN_MOTION_DOT = .464879E-2
MEAN_MOTION_DDOT = 0

CCSDS_OMM_VERS = 2.0
CREATION_DATE  = 
ORIGINATOR     = 

OBJECT_NAME    = STARLINK-37071
OBJECT_ID      = 2026-050Z
CENTER_NAME    = EARTH
REF_FRAME      = TEME
TIME_SYSTEM    = UTC
MEAN_ELEMENT_THEORY = SGP/SGP4

EPOCH          = 2026-03-26T07:08:36.672288
MEAN_MOTION    = 15.80908875
ECCENTRICITY   = .00008438
INCLINATION    = 53.1592
RA_OF_ASC_NODE = 198.3966
ARG_OF_PERICENTER = 134.4530
MEAN_ANOMALY   = 225.6562

EPHEMERIS_TYPE = 0
CLASSIFICATION_TYPE = U
NORAD_CAT_ID   = 68190
ELEMENT_SET_NO = 999
REV_AT_EPOCH   = 310
BSTAR          = .14068265E-2
MEAN_MOTION_DOT = .286863E-2
MEAN_MOTION_DDOT = 0

CCSDS_OMM_VERS = 2.0
CREATION_DATE  = 
ORIGINATOR     = 

OBJECT_NAME    = STARLINK-37091
OBJECT_ID      = 2026-050AA
CENTER_NAME    = EARTH
REF_FRAME      = TEME
TIME_SYSTEM    = UTC
MEAN_ELEMENT_THEORY = SGP/SGP4

EPOCH          = 2026-03-26T01:03:22.869216
MEAN_MOTION    = 15.80999217
ECCENTRICITY   = .0001406
INCLINATION    = 53.1593
RA_OF_ASC_NODE = 199.6588
ARG_OF_PERICENTER = 66.8452
MEAN_ANOMALY   = 293.2719

EPHEMERIS_TYPE = 0
CLASSIFICATION_TYPE = U
NORAD_CAT_ID   = 68191
ELEMENT_SET_NO = 999
REV_AT_EPOCH   = 306
BSTAR          = .16505102E-2
MEAN_MOTION_DOT = .340193E-2
MEAN_MOTION_DDOT = 0

CCSDS_OMM_VERS = 2.0
CREATION_DATE  = 
ORIGINATOR     = 

OBJECT_NAME    = STARLINK-37098
OBJECT_ID      = 2026-050AB
CENTER_NAME    = EARTH
REF_FRAME      = TEME
TIME_SYSTEM    = UTC
MEAN_ELEMENT_THEORY = SGP/SGP4

EPOCH          = 2026-03-26T01:02:18.834720
MEAN_MOTION    = 15.80952966
ECCENTRICITY   = .00027572
INCLINATION    = 53.1596
RA_OF_ASC_NODE = 199.6546
ARG_OF_PERICENTER = 68.9204
MEAN_ANOMALY   = 291.2113

EPHEMERIS_TYPE = 0
CLASSIFICATION_TYPE = U
NORAD_CAT_ID   = 68192
ELEMENT_SET_NO = 999
REV_AT_EPOCH   = 306
BSTAR          = .12299482E-2
MEAN_MOTION_DOT = .250152E-2
MEAN_MOTION_DDOT = 0

CCSDS_OMM_VERS = 2.0
CREATION_DATE  = 
ORIGINATOR     = 

OBJECT_NAME    = STARLINK-37090
OBJECT_ID      = 2026-050AC
CENTER_NAME    = EARTH
REF_FRAME      = TEME
TIME_SYSTEM    = UTC
MEAN_ELEMENT_THEORY = SGP/SGP4

EPOCH          = 2026-03-26T07:04:17.762592
MEAN_MOTION    = 15.81143737
ECCENTRICITY   = .00010571
INCLINATION    = 53.1590
RA_OF_ASC_NODE = 198.3760
ARG_OF_PERICENTER = 203.7291
MEAN_ANOMALY   = 156.3683

EPHEMERIS_TYPE = 0
CLASSIFICATION_TYPE = U
NORAD_CAT_ID   = 68193
ELEMENT_SET_NO = 999
REV_AT_EPOCH   = 310
BSTAR          = .29196652E-2
MEAN_MOTION_DOT = .627219E-2
MEAN_MOTION_DDOT = 0

CCSDS_OMM_VERS = 2.0
CREATION_DATE  = 
ORIGINATOR     = 

OBJECT_NAME    = STARLINK-37093
OBJECT_ID      = 2026-050AD
CENTER_NAME    = EARTH
REF_FRAME      = TEME
TIME_SYSTEM    = UTC
MEAN_ELEMENT_THEORY = SGP/SGP4

EPOCH          = 2026-03-26T07:09:41.541408
MEAN_MOTION    = 15.80900749
ECCENTRICITY   = .00007194
INCLINATION    = 53.1597
RA_OF_ASC_NODE = 198.4012
ARG_OF_PERICENTER = 75.8405
MEAN_ANOMALY   = 284.2698

EPHEMERIS_TYPE = 0
CLASSIFICATION_TYPE = U
NORAD_CAT_ID   = 68194
ELEMENT_SET_NO = 999
REV_AT_EPOCH   = 310
BSTAR          = .13126212E-2
MEAN_MOTION_DOT = .266881E-2
MEAN_MOTION_DDOT = 0

CCSDS_OMM_VERS = 2.0
CREATION_DATE  = 
ORIGINATOR     = 

OBJECT_NAME    = STARLINK-37058
OBJECT_ID      = 2026-050AE
CENTER_NAME    = EARTH
REF_FRAME      = TEME
TIME_SYSTEM    = UTC
MEAN_ELEMENT_THEORY = SGP/SGP4

EPOCH          = 2026-03-26T05:34:20.162784
MEAN_MOTION    = 15.80902814
ECCENTRICITY   = .00011546
INCLINATION    = 53.1592
RA_OF_ASC_NODE = 198.6979
ARG_OF_PERICENTER = 47.9660
MEAN_ANOMALY   = 312.1461

EPHEMERIS_TYPE = 0
CLASSIFICATION_TYPE = U
NORAD_CAT_ID   = 68195
ELEMENT_SET_NO = 999
REV_AT_EPOCH   = 153
BSTAR          = .76729562E-3
MEAN_MOTION_DOT = .153675E-2
MEAN_MOTION_DDOT = 0

CCSDS_OMM_VERS = 2.0
CREATION_DATE  = 
ORIGINATOR     = 

OBJECT_NAME    = YAOGAN-50 02
OBJECT_ID      = 2026-051A
CENTER_NAME    = EARTH
REF_FRAME      = TEME
TIME_SYSTEM    = UTC
MEAN_ELEMENT_THEORY = SGP/SGP4

EPOCH          = 2026-03-26T06:11:52.635840
MEAN_MOTION    = 13.83268443
ECCENTRICITY   = .00010714
INCLINATION    = 141.9879
RA_OF_ASC_NODE = 287.1078
ARG_OF_PERICENTER = 230.8386
MEAN_ANOMALY   = 129.2238

EPHEMERIS_TYPE = 0
CLASSIFICATION_TYPE = U
NORAD_CAT_ID   = 68196
ELEMENT_SET_NO = 999
REV_AT_EPOCH   = 150
BSTAR          = .73184781E-4
MEAN_MOTION_DOT = .267E-5
MEAN_MOTION_DDOT = 0

